GLOBALSTAR M023         
1 25621U 99004A   25065.29999434  .00000006  00000+0  61281-3 0  9991
2 25621  52.0136   6.7354 0009557 261.0749 259.1220 12.62497966202822
GLOBALSTAR M040         
1 25622U 99004B   25065.23100089 -.00000101  00000+0  15106-4 0  9999
2 25622  51.9945  10.9457 0000843 137.1804   4.7570 12.62003141202251
GLOBALSTAR M036         
1 25623U 99004C   25065.53482273 -.00000102  00000+0 -27729-3 0  9996
2 25623  51.9959 150.8901 0011248 213.8940 246.6549 11.86590528166795
GLOBALSTAR M038         
1 25624U 99004D   25065.36717637 -.00000069  00000+0  21656-3 0  9997
2 25624  52.0001   7.6799 0001545 187.5768 322.6067 12.32521536189693
GLOBALSTAR M022         
1 25649U 99012A   25065.75802292 -.00000083  00000+0  49430-4 0  9995
2 25649  52.0021 209.3501 0001866 346.7841 106.3116 12.02497011164132
GLOBALSTAR M041         
1 25650U 99012B   25065.47982719 -.00000128  00000+0 -54798-3 0  9992
2 25650  52.0012  88.4276 0001893 115.5080 244.5952 11.96669057165986
GLOBALSTAR M046         
1 25651U 99012C   25065.54478602 -.00000164  00000+0 -82614-3 0  9990
2 25651  52.0046 163.8112 0002464  65.1960  54.4928 12.09408022171248
GLOBALSTAR M037         
1 25652U 99012D   25065.58770670 -.00000083  00000+0  11757-3 0  9994
2 25652  51.9998 136.5169 0001421 326.1418 181.1306 12.62438185198319
